SCD 1                   
1 22490U 93009B   26199.56254375  .00000293  00000+0  29219-4 0  9992
2 22490  24.9707  13.8501 0042075 110.0045 302.2246 14.46129363765663
TECHSAT 1B (GO-32)      
1 25397U 98043D   26198.97124761  .00000003  00000+0  21480-4 0  9994
2 25397  99.0087 192.5089 0002266 110.8541 249.2880 14.24433657455715
SCD 2                   
1 25504U 98060A   26199.45306880  .00000261  00000+0  22200-4 0  9998
2 25504  24.9940 239.3453 0017006  93.4367  35.4241 14.45535373464857
DLR-TUBSAT              
1 25757U 99029B   26199.43175656  .00000001  00000+0  12056-4 0  9997
2 25757  98.6713 195.9665 0013010 254.0377 105.9384 14.52433627437782
TERRA                   
1 25994U 99068A   26199.60659832  .00000151  00000+0  39702-4 0  9998
2 25994  97.9439 247.9044 0003536 116.1345  44.6257 14.61125153414196
MAROC-TUBSAT            
1 27004U 01056D   26199.46578654 -.00000041  00000+0  64738-5 0  9995
2 27004  99.8101  16.9174 0020554  64.0317 325.6217 13.70263603230471
AQUA                    
1 27424U 02022A   26199.60004448  .00000309  00000+0  71293-4 0  9995
2 27424  98.4299 169.5150 0001252 101.5604 313.3072 14.62131087287869
SHIYAN-1 (SY-1)         
1 28220U 04012A   26199.16511364  .00006970  00000+0  21120-3 0  9995
2 28220  97.8681 279.2627 0004158 260.9627  99.1144 15.34497285215846
AURA                    
1 28376U 04026A   26199.61938679  .00000320  00000+0  74565-4 0  9999
2 28376  98.3432 156.3368 0001371  93.8404 266.2954 14.61370411170807
IRS-P5 (CARTOSAT-1)     
1 28649U 05017A   26199.48425511  .00000666  00000+0  72449-4 0  9996
2 28649  97.5306 221.1293 0001190  51.3279 308.8047 14.91121751148486
SINAH 1                 
1 28893U 05043D   26199.62670407  .00000116  00000+0  31386-4 0  9993
2 28893  98.2899 334.1404 0014642 172.8594 187.2819 14.64176630105122
RESURS-DK 1             
1 29228U 06021A   26199.56535781  .00000867  00000+0  54664-4 0  9998
2 29228  69.9304 258.3198 0007302 267.3280  92.7050 15.13325666107326
ARIRANG-2 (KOMPSAT-2)   
1 29268U 06031A   26199.65237366  .00000258  00000+0  57010-4 0  9993
2 29268  97.8313  22.5774 0013921 339.6408  94.7976 14.64677252 66082
LAPAN-TUBSAT            
1 29709U 07001A   26199.63354862  .00000871  00000+0  10615-3 0  9990
2 29709  98.1352 199.5690 0013660  83.7700 276.5070 14.85980857 55829
HAIYANG-1B              
1 31113U 07010A   26199.39905294  .00000034  00000+0  28550-4 0  9995
2 31113  98.3516 180.0367 0014751 107.0422 253.2379 14.31033828  5102
COSMO-SKYMED 1          
1 31598U 07023A   26199.61378941  .00001579  00000+0  14165-3 0  9995
2 31598  97.8850  31.7358 0001691 100.5171 259.6241 14.97230090 34498
TERRASAR-X              
1 31698U 07026A   26199.41329748  .00000174  00000+0  11467-4 0  9991
2 31698  97.4454 206.6756 0001859  78.4405 281.7038 15.19149093 57963
WORLDVIEW-1 (WV-1)      
1 32060U 07041A   26199.60242261  .00003019  00000+0  12542-3 0  9992
2 32060  97.3907 318.9068 0001861 191.5791 168.5405 15.24579950 47661
YAOGAN-3                
1 32289U 07055A   26199.60553795  .00000497  00000+0  56046-4 0  9992
2 32289  97.8138 229.1732 0001436  76.6103 283.5275 14.90887309 10557
COSMO-SKYMED 2          
1 32376U 07059A   26199.62096056  .00000144  00000+0  24619-4 0  9997
2 32376  97.8896  22.7644 0001448  93.8377 266.3001 14.82151929  6667
RADARSAT-2              
1 32382U 07061A   26199.59467171 -.00000069  00000+0 -97718-5 0  9992
2 32382  98.5782 206.0792 0001322  84.3932 275.7402 14.29983524970440
CARTOSAT-2A             
1 32783U 08021A   26199.56796471  .00000924  00000+0  13084-3 0  9999
2 32783  97.7610 247.2032 0012196  17.0348 343.1271 14.79280981983445
HUANJING 1A (HJ-1A)     
1 33320U 08041A   26199.65420191  .00000935  00000+0  11797-3 0  9993
2 33320  97.6701 184.2798 0020121  39.0277 321.2385 14.84054344963072
HUANJING 1B (HJ-1B)     
1 33321U 08041B   26199.63774131 -.00000052  00000+0 -49016-7 0  9999
2 33321  97.6537 187.3400 0037952  80.3941 280.1558 14.83366694963079
GEOEYE 1                
1 33331U 08042A   26199.64541398  .00000168  00000+0  40512-4 0  9994
2 33331  98.1325 273.2008 0003698 334.3969  25.7050 14.64650893954753
THEOS                   
1 33396U 08049A   26199.60347150 -.00000006  00000+0  16911-4 0  9996
2 33396  98.5550 255.8645 0001124  89.0317 271.0989 14.20137166922425
COSMO-SKYMED 3          
1 33412U 08054A   26199.61513194  .00002164  00000+0  14804-3 0  9999
2 33412  97.8246  58.7047 0016046 155.1148 205.0856 15.07130389961676
YAOGAN-4                
1 33446U 08061A   26199.26685411  .00000458  00000+0  62534-4 0  9995
2 33446  97.9303 132.5490 0013567 335.2907  24.7655 14.83254423950276
GOSAT (IBUKI)           
1 33492U 09002A   26199.29760965  .00000284  00000+0  58558-4 0  9991
2 33492  98.0915 309.9927 0001121  89.0388 271.0945 14.67541715936024
DEIMOS-1                
1 35681U 09041A   26199.58994219  .00000024  00000+0  10546-4 0  9996
2 35681  97.7439 355.4620 0002797  87.5865 272.5665 14.75264686911512
