OBJECT_NAME,OBJECT_ID,EPOCH,MEAN_MOTION,ECCENTRICITY,INCLINATION,RA_OF_ASC_NODE,ARG_OF_PERICENTER,MEAN_ANOMALY,EPHEMERIS_TYPE,CLASSIFICATION_TYPE,NORAD_CAT_ID,ELEMENT_SET_NO,REV_AT_EPOCH,BSTAR,MEAN_MOTION_DOT,MEAN_MOTION_DDOT
SCD 1,1993-009B,2026-07-18T13:30:03.780000,14.46129363,.00420753,24.9707,13.8501,110.0045,302.2246,0,U,22490,999,76566,.29219021E-4,.293E-5,0
TECHSAT 1B (GO-32),1998-043D,2026-07-17T23:18:35.793504,14.24433657,.00022668,99.0087,192.5089,110.8541,249.2880,0,U,25397,999,45571,.2148049E-4,.3E-7,0
SCD 2,1998-060A,2026-07-18T10:52:25.144320,14.45535373,.00170067,24.9940,239.3453,93.4367,35.4241,0,U,25504,999,46485,.22200197E-4,.261E-5,0
DLR-TUBSAT,1999-029B,2026-07-18T10:21:43.766784,14.52433627,.00130102,98.6713,195.9665,254.0377,105.9384,0,U,25757,999,43778,.12056248E-4,.1E-7,0
TERRA,1999-068A,2026-07-18T14:33:30.094848,14.61125153,.00035363,97.9439,247.9044,116.1345,44.6257,0,U,25994,999,41419,.39701545E-4,.151E-5,0
MAROC-TUBSAT,2001-056D,2026-07-18T11:10:43.957056,13.70263603,.00205547,99.8101,16.9174,64.0317,325.6217,0,U,27004,999,23047,.6473825E-5,-.41E-6,0
AQUA,2002-022A,2026-07-18T14:24:03.843072,14.62131087,.00012523,98.4299,169.5150,101.5604,313.3072,0,U,27424,999,28786,.71293474E-4,.309E-5,0
SHIYAN-1 (SY-1),2004-012A,2026-07-18T03:57:45.818496,15.34497285,.00041585,97.8681,279.2627,260.9627,99.1144,0,U,28220,999,21584,.21119515E-3,.697E-4,0
AURA,2004-026A,2026-07-18T14:51:55.018656,14.61370411,.00013719,98.3432,156.3368,93.8404,266.2954,0,U,28376,999,17080,.74564905E-4,.32E-5,0
IRS-P5 (CARTOSAT-1),2005-017A,2026-07-18T11:37:19.641504,14.91121751,.00011906,97.5306,221.1293,51.3279,308.8047,0,U,28649,999,14848,.7244905E-4,.666E-5,0
SINAH 1,2005-043D,2026-07-18T15:02:27.231648,14.64176630,.00146421,98.2899,334.1404,172.8594,187.2819,0,U,28893,999,10512,.31385598E-4,.116E-5,0
RESURS-DK 1,2006-021A,2026-07-18T13:34:06.914784,15.13325666,.00073027,69.9304,258.3198,267.3280,92.7050,0,U,29228,999,10732,.54664059E-4,.867E-5,0
ARIRANG-2 (KOMPSAT-2),2006-031A,2026-07-18T15:39:25.084224,14.64677252,.00139217,97.8313,22.5774,339.6408,94.7976,0,U,29268,999,6608,.57009982E-4,.258E-5,0
LAPAN-TUBSAT,2007-001A,2026-07-18T15:12:18.600768,14.85980857,.00136601,98.1352,199.5690,83.7700,276.5070,0,U,29709,999,5582,.10614521E-3,.871E-5,0
HAIYANG-1B,2007-010A,2026-07-18T09:34:38.174016,14.31033828,.00147517,98.3516,180.0367,107.0422,253.2379,0,U,31113,999,510,.28549602E-4,.34E-6,0
COSMO-SKYMED 1,2007-023A,2026-07-18T14:43:51.405024,14.97230090,.00016912,97.8850,31.7358,100.5171,259.6241,0,U,31598,999,3449,.14165256E-3,.1579E-4,0
TERRASAR-X,2007-026A,2026-07-18T09:55:08.902272,15.19149093,.00018596,97.4454,206.6756,78.4405,281.7038,0,U,31698,999,5796,.11466865E-4,.174E-5,0
WORLDVIEW-1 (WV-1),2007-041A,2026-07-18T14:27:29.313504,15.24579950,.0001861,97.3907,318.9068,191.5791,168.5405,0,U,32060,999,4766,.12541638E-3,.3019E-4,0
YAOGAN-3,2007-055A,2026-07-18T14:31:58.478880,14.90887309,.00014368,97.8138,229.1732,76.6103,283.5275,0,U,32289,999,1055,.56045792E-4,.497E-5,0
COSMO-SKYMED 2,2007-059A,2026-07-18T14:54:10.992384,14.82151929,.00014487,97.8896,22.7644,93.8377,266.3001,0,U,32376,999,666,.24618559E-4,.144E-5,0
RADARSAT-2,2007-061A,2026-07-18T14:16:19.635744,14.29983524,.0001322,98.5782,206.0792,84.3932,275.7402,0,U,32382,999,97044,-.9771768E-5,-.69E-6,0
CARTOSAT-2A,2008-021A,2026-07-18T13:37:52.150944,14.79280981,.0012196,97.7610,247.2032,17.0348,343.1271,0,U,32783,999,98344,.13083595E-3,.924E-5,0
HUANJING 1A (HJ-1A),2008-041A,2026-07-18T15:42:03.045024,14.84054344,.00201212,97.6701,184.2798,39.0277,321.2385,0,U,33320,999,96307,.1179665E-3,.935E-5,0
HUANJING 1B (HJ-1B),2008-041B,2026-07-18T15:18:20.849184,14.83366694,.00379524,97.6537,187.3400,80.3941,280.1558,0,U,33321,999,96307,-.49016E-7,-.52E-6,0
GEOEYE 1,2008-042A,2026-07-18T15:29:23.767872,14.64650893,.00036989,98.1325,273.2008,334.3969,25.7050,0,U,33331,999,95475,.40512321E-4,.168E-5,0
THEOS,2008-049A,2026-07-18T14:28:59.937600,14.20137166,.00011246,98.5550,255.8645,89.0317,271.0989,0,U,33396,999,92242,.16910995E-4,-.6E-7,0
COSMO-SKYMED 3,2008-054A,2026-07-18T14:45:47.399616,15.07130389,.00160462,97.8246,58.7047,155.1148,205.0856,0,U,33412,999,96167,.14803937E-3,.2164E-4,0
YAOGAN-4,2008-061A,2026-07-18T06:24:16.195104,14.83254423,.00135673,97.9303,132.5490,335.2907,24.7655,0,U,33446,999,95027,.62534165E-4,.458E-5,0
GOSAT (IBUKI),2009-002A,2026-07-18T07:08:33.473760,14.67541715,.00011215,98.0915,309.9927,89.0388,271.0945,0,U,33492,999,93602,.58558213E-4,.284E-5,0
DEIMOS-1,2009-041A,2026-07-18T14:09:31.005216,14.75264686,.00027974,97.7439,355.4620,87.5865,272.5665,0,U,35681,999,91151,.10546358E-4,.24E-6,0
